COSMOS 2361 [-]         
1 25590U 98076A   22288.67106925  .00000067  00000+0  55952-4 0  9991
2 25590  82.9302 117.3093 0030469 233.0284 172.2588 13.73030455192731
COSMOS 2378 [-]         
1 26818U 01023A   22288.99355045  .00001212  00000+0  12715-2 0  9996
2 26818  82.9257 134.8941 0032890 177.2334 182.8975 13.73979333 70868
COSMOS 2389 [-]         
1 27436U 02026A   22289.52257139  .00000066  00000+0  52512-4 0  9999
2 27436  82.9484  80.4080 0047185  39.2593  27.1459 13.74984053 23068
COSMOS 2398 [-]         
1 27818U 03023A   22289.30953224  .00000059  00000+0  47842-4 0  9997
2 27818  82.9509  42.5509 0032674  76.3854 284.0913 13.72219196969968
COSMOS 2407 [+]         
1 28380U 04028A   22289.13209931  .00000087  00000+0  73077-4 0  9998
2 28380  82.9655 347.0917 0040303  41.4224 319.0019 13.76123128915750
COSMOS 2414 [+]         
1 28521U 05002A   22280.22833380 -.00000005  00000+0 -16909-4 0  9993
2 28521  82.9533 343.7334 0039429 213.7830 146.0822 13.87666838897056
COSMOS 2429 [-]         
1 32052U 07038A   22289.46282712  .00000060  00000+0  46314-4 0  9992
2 32052  82.9763 113.1659 0038866  18.2762 341.9781 13.74971766757623
COSMOS 2454 [-]         
1 35635U 09039A   22280.25725981  .00000056  00000+0  32786-4 0  9996
2 35635  82.9584 329.8517 0019964 154.8128 205.4046 13.89696009670222
COSMOS 2463 [+]         
1 36519U 10017A   22288.87270772  .00000047  00000+0  35175-4 0  9990
2 36519  82.9608 154.3778 0034943 248.3499 122.1331 13.71482046624209
